{
  "links" : {
    "next" : "https://api.nasa.gov/neo/rest/v1/feed?start_date=2008-10-09&end_date=2008-10-09&detailed=true&api_key=t0TVs3DtDT2H8Oy2Zy8m2eVrNsAVKAexjcZXUckd",
    "prev" : "https://api.nasa.gov/neo/rest/v1/feed?start_date=2008-10-07&end_date=2008-10-07&detailed=true&api_key=t0TVs3DtDT2H8Oy2Zy8m2eVrNsAVKAexjcZXUckd",
    "self" : "https://api.nasa.gov/neo/rest/v1/feed?start_date=2008-10-08&end_date=2008-10-08&detailed=true&api_key=t0TVs3DtDT2H8Oy2Zy8m2eVrNsAVKAexjcZXUckd"
  },
  "element_count" : 5,
  "near_earth_objects" : {
    "2008-10-08" : [ {
      "links" : {
        "self" : "https://api.nasa.gov/neo/rest/v1/neo/3448962?api_key=t0TVs3DtDT2H8Oy2Zy8m2eVrNsAVKAexjcZXUckd"
      },
      "neo_reference_id" : "3448962",
      "name" : "(2009 DA43)",
      "nasa_jpl_url" : "http://ssd.jpl.nasa.gov/sbdb.cgi?sstr=3448962",
      "absolute_magnitude_h" : 24.6,
      "estimated_diameter" : {
        "kilometers" : {
          "estimated_diameter_min" : 0.0319561887,
          "estimated_diameter_max" : 0.0714562102
        },
        "meters" : {
          "estimated_diameter_min" : 31.9561886721,
          "estimated_diameter_max" : 71.4562101727
        },
        "miles" : {
          "estimated_diameter_min" : 0.0198566489,
          "estimated_diameter_max" : 0.0444008168
        },
        "feet" : {
          "estimated_diameter_min" : 104.8431420431,
          "estimated_diameter_max" : 234.436392583
        }
      },
      "is_potentially_hazardous_asteroid" : false,
      "close_approach_data" : [ {
        "close_approach_date" : "2008-10-08",
        "epoch_date_close_approach" : 1223449200000,
        "relative_velocity" : {
          "kilometers_per_second" : "4.7127523398",
          "kilometers_per_hour" : "16965.9084234554",
          "miles_per_hour" : "10541.9557090076"
        },
        "miss_distance" : {
          "astronomical" : "0.1245114608",
          "lunar" : "48.4349555969",
          "kilometers" : "18626650",
          "miles" : "11574063"
        },
        "orbiting_body" : "Earth"
      } ],
      "orbital_data" : {
        "orbit_id" : "11",
        "orbit_determination_date" : "2017-04-06 09:01:12",
        "orbit_uncertainty" : "6",
        "minimum_orbit_intersection" : ".0826242",
        "jupiter_tisserand_invariant" : "5.989",
        "epoch_osculation" : "2458000.5",
        "eccentricity" : ".1185568885396154",
        "semi_major_axis" : "1.016847408626598",
        "inclination" : "6.709654315899351",
        "ascending_node_longitude" : "157.872818510677",
        "orbital_period" : "374.5261154600507",
        "perihelion_distance" : ".8962931437402576",
        "perihelion_argument" : "215.4707759699843",
        "aphelion_distance" : "1.137401673512938",
        "perihelion_time" : "2458116.574434965189",
        "mean_anomaly" : "248.4275492080461",
        "mean_motion" : ".9612146794030438",
        "equinox" : "J2000"
      }
    }, {
      "links" : {
        "self" : "https://api.nasa.gov/neo/rest/v1/neo/3693145?api_key=t0TVs3DtDT2H8Oy2Zy8m2eVrNsAVKAexjcZXUckd"
      },
      "neo_reference_id" : "3693145",
      "name" : "(2014 TJ33)",
      "nasa_jpl_url" : "http://ssd.jpl.nasa.gov/sbdb.cgi?sstr=3693145",
      "absolute_magnitude_h" : 23.0,
      "estimated_diameter" : {
        "kilometers" : {
          "estimated_diameter_min" : 0.0667659413,
          "estimated_diameter_max" : 0.1492931834
        },
        "meters" : {
          "estimated_diameter_min" : 66.7659413495,
          "estimated_diameter_max" : 149.2931834393
        },
        "miles" : {
          "estimated_diameter_min" : 0.0414864197,
          "estimated_diameter_max" : 0.0927664547
        },
        "feet" : {
          "estimated_diameter_min" : 219.0483710172,
          "estimated_diameter_max" : 489.807047955
        }
      },
      "is_potentially_hazardous_asteroid" : false,
      "close_approach_data" : [ {
        "close_approach_date" : "2008-10-08",
        "epoch_date_close_approach" : 1223449200000,
        "relative_velocity" : {
          "kilometers_per_second" : "23.8419039144",
          "kilometers_per_hour" : "85830.8540919131",
          "miles_per_hour" : "53331.9548661668"
        },
        "miss_distance" : {
          "astronomical" : "0.3966788851",
          "lunar" : "154.30809021",
          "kilometers" : "59342320",
          "miles" : "36873608"
        },
        "orbiting_body" : "Earth"
      } ],
      "orbital_data" : {
        "orbit_id" : "15",
        "orbit_determination_date" : "2017-04-06 08:38:12",
        "orbit_uncertainty" : "7",
        "minimum_orbit_intersection" : ".00505815",
        "jupiter_tisserand_invariant" : "4.214",
        "epoch_osculation" : "2458000.5",
        "eccentricity" : ".4938430059682021",
        "semi_major_axis" : "1.600610310491049",
        "inclination" : "2.704321948772363",
        "ascending_node_longitude" : "46.32539067917241",
        "orbital_period" : "739.6509885868275",
        "perihelion_distance" : ".8101601033744519",
        "perihelion_argument" : "57.22086039033191",
        "aphelion_distance" : "2.391060517607645",
        "perihelion_time" : "2457750.609261925834",
        "mean_anomaly" : "121.6258304184494",
        "mean_motion" : ".4867160398011686",
        "equinox" : "J2000"
      }
    } ]
  }
}